[{"OBJECT_NAME":"COSMOS 2251 DEB","OBJECT_ID":"1993-036YQ","EPOCH":"2026-03-02T10:46:47.968320","MEAN_MOTION":14.12168674,"ECCENTRICITY":0.01619325,"INCLINATION":73.8722,"RA_OF_ASC_NODE":193.8946,"ARG_OF_PERICENTER":104.476,"MEAN_ANOMALY":322.8976,"EPHEMERIS_TYPE":0,"CLASSIFICATION_TYPE":"U","NORAD_CAT_ID":34722,"ELEMENT_SET_NO":999,"REV_AT_EPOCH":87370,"BSTAR":0.00063530454,"MEAN_MOTION_DOT":1.296e-5,"MEAN_MOTION_DDOT":0},{"OBJECT_NAME":"COSMOS 2251 DEB","OBJECT_ID":"1993-036YU","EPOCH":"2026-03-01T19:38:52.602432","MEAN_MOTION":14.59888667,"ECCENTRICITY":0.00443613,"INCLINATION":74.0282,"RA_OF_ASC_NODE":195.4226,"ARG_OF_PERICENTER":323.7413,"MEAN_ANOMALY":36.0747,"EPHEMERIS_TYPE":0,"CLASSIFICATION_TYPE":"U","NORAD_CAT_ID":34726,"ELEMENT_SET_NO":999,"REV_AT_EPOCH":89656,"BSTAR":0.00046288624,"MEAN_MOTION_DOT":2.216e-5,"MEAN_MOTION_DDOT":0},{"OBJECT_NAME":"COSMOS 2251 DEB","OBJECT_ID":"1993-036YW","EPOCH":"2026-02-28T06:28:35.824512","MEAN_MOTION":14.71624289,"ECCENTRICITY":0.00440054,"INCLINATION":74.016,"RA_OF_ASC_NODE":100.9815,"ARG_OF_PERICENTER":242.2585,"MEAN_ANOMALY":117.4121,"EPHEMERIS_TYPE":0,"CLASSIFICATION_TYPE":"U","NORAD_CAT_ID":34728,"ELEMENT_SET_NO":999,"REV_AT_EPOCH":89940,"BSTAR":0.0005592728,"MEAN_MOTION_DOT":3.501e-5,"MEAN_MOTION_DDOT":0},{"OBJECT_NAME":"COSMOS 2251 DEB","OBJECT_ID":"1993-036YX","EPOCH":"2026-03-02T18:45:33.322752","MEAN_MOTION":14.85440389,"ECCENTRICITY":0.001642,"INCLINATION":74.0152,"RA_OF_ASC_NODE":199.5363,"ARG_OF_PERICENTER":301.5719,"MEAN_ANOMALY":177.1807,"EPHEMERIS_TYPE":0,"CLASSIFICATION_TYPE":"U","NORAD_CAT_ID":34729,"ELEMENT_SET_NO":999,"REV_AT_EPOCH":89645,"BSTAR":0.0021601,"MEAN_MOTION_DOT":0.00018686,"MEAN_MOTION_DDOT":0},{"OBJECT_NAME":"COSMOS 2251 DEB","OBJECT_ID":"1993-036ZA","EPOCH":"2026-03-02T18:14:14.152128","MEAN_MOTION":14.47394618,"ECCENTRICITY":0.0038236,"INCLINATION":74.0453,"RA_OF_ASC_NODE":303.6462,"ARG_OF_PERICENTER":73.4235,"MEAN_ANOMALY":354.5272,"EPHEMERIS_TYPE":0,"CLASSIFICATION_TYPE":"U","NORAD_CAT_ID":34732,"ELEMENT_SET_NO":999,"REV_AT_EPOCH":89301,"BSTAR":0.00013801,"MEAN_MOTION_DOT":4.83e-6,"MEAN_MOTION_DDOT":0},{"OBJECT_NAME":"COSMOS 2251 DEB","OBJECT_ID":"1993-036ZG","EPOCH":"2026-03-02T14:17:47.362848","MEAN_MOTION":14.46516451,"ECCENTRICITY":0.0045336,"INCLINATION":74.0181,"RA_OF_ASC_NODE":353.9847,"ARG_OF_PERICENTER":122.5679,"MEAN_ANOMALY":294.685,"EPHEMERIS_TYPE":0,"CLASSIFICATION_TYPE":"U","NORAD_CAT_ID":34738,"ELEMENT_SET_NO":999,"REV_AT_EPOCH":89013,"BSTAR":0.00034325,"MEAN_MOTION_DOT":1.224e-5,"MEAN_MOTION_DDOT":0},{"OBJECT_NAME":"COSMOS 2251 DEB","OBJECT_ID":"1993-036ZU","EPOCH":"2026-03-02T10:11:48.208128","MEAN_MOTION":14.62389991,"ECCENTRICITY":0.00387936,"INCLINATION":74.1064,"RA_OF_ASC_NODE":49.9077,"ARG_OF_PERICENTER":334.6513,"MEAN_ANOMALY":178.0177,"EPHEMERIS_TYPE":0,"CLASSIFICATION_TYPE":"U","NORAD_CAT_ID":34750,"ELEMENT_SET_NO":999,"REV_AT_EPOCH":89395,"BSTAR":0.0016805998,"MEAN_MOTION_DOT":8.572e-5,"MEAN_MOTION_DDOT":0},{"OBJECT_NAME":"COSMOS 2251 DEB","OBJECT_ID":"1993-036ZW","EPOCH":"2026-03-02T17:56:58.058016","MEAN_MOTION":15.02489392,"ECCENTRICITY":0.0049461,"INCLINATION":74.0116,"RA_OF_ASC_NODE":197.4411,"ARG_OF_PERICENTER":304.9726,"MEAN_ANOMALY":54.6822,"EPHEMERIS_TYPE":0,"CLASSIFICATION_TYPE":"U","NORAD_CAT_ID":34752,"ELEMENT_SET_NO":999,"REV_AT_EPOCH":91050,"BSTAR":0.0011347,"MEAN_MOTION_DOT":0.00015462,"MEAN_MOTION_DDOT":0},{"OBJECT_NAME":"COSMOS 2251 DEB","OBJECT_ID":"1993-036ZY","EPOCH":"2026-03-02T19:08:53.866752","MEAN_MOTION":14.40610021,"ECCENTRICITY":0.0029398,"INCLINATION":74.0284,"RA_OF_ASC_NODE":79.4972,"ARG_OF_PERICENTER":181.6186,"MEAN_ANOMALY":231.0335,"EPHEMERIS_TYPE":0,"CLASSIFICATION_TYPE":"U","NORAD_CAT_ID":34754,"ELEMENT_SET_NO":999,"REV_AT_EPOCH":89286,"BSTAR":0.00020056,"MEAN_MOTION_DOT":6.16e-6,"MEAN_MOTION_DDOT":0},{"OBJECT_NAME":"COSMOS 2251 DEB","OBJECT_ID":"1993-036ZZ","EPOCH":"2026-03-02T05:53:45.718656","MEAN_MOTION":13.50769611,"ECCENTRICITY":0.0405601,"INCLINATION":73.9256,"RA_OF_ASC_NODE":162.2201,"ARG_OF_PERICENTER":167.7079,"MEAN_ANOMALY":222.6181,"EPHEMERIS_TYPE":0,"CLASSIFICATION_TYPE":"U","NORAD_CAT_ID":34755,"ELEMENT_SET_NO":999,"REV_AT_EPOCH":83597,"BSTAR":0.0013777487,"MEAN_MOTION_DOT":1.462e-5,"MEAN_MOTION_DDOT":0},{"OBJECT_NAME":"COSMOS 2251 DEB","OBJECT_ID":"1993-036AAA","EPOCH":"2026-03-02T03:56:23.474112","MEAN_MOTION":13.67481816,"ECCENTRICITY":0.03453372,"INCLINATION":74.005,"RA_OF_ASC_NODE":333.7159,"ARG_OF_PERICENTER":193.1771,"MEAN_ANOMALY":166.0154,"EPHEMERIS_TYPE":0,"CLASSIFICATION_TYPE":"U","NORAD_CAT_ID":34756,"ELEMENT_SET_NO":999,"REV_AT_EPOCH":84507,"BSTAR":0.0005873801,"MEAN_MOTION_DOT":7.26e-6,"MEAN_MOTION_DDOT":0},{"OBJECT_NAME":"COSMOS 2251 DEB","OBJECT_ID":"1993-036AAC","EPOCH":"2026-03-02T07:24:10.321056","MEAN_MOTION":13.58309889,"ECCENTRICITY":0.03862391,"INCLINATION":74.1072,"RA_OF_ASC_NODE":171.3995,"ARG_OF_PERICENTER":276.9649,"MEAN_ANOMALY":78.7686,"EPHEMERIS_TYPE":0,"CLASSIFICATION_TYPE":"U","NORAD_CAT_ID":34758,"ELEMENT_SET_NO":999,"REV_AT_EPOCH":83990,"BSTAR":0.0014749147,"MEAN_MOTION_DOT":1.721e-5,"MEAN_MOTION_DDOT":0},{"OBJECT_NAME":"COSMOS 2251 DEB","OBJECT_ID":"1993-036AAE","EPOCH":"2026-03-02T15:13:45.079392","MEAN_MOTION":14.19800308,"ECCENTRICITY":0.0096625,"INCLINATION":74.0636,"RA_OF_ASC_NODE":159.757,"ARG_OF_PERICENTER":194.6601,"MEAN_ANOMALY":233.0512,"EPHEMERIS_TYPE":0,"CLASSIFICATION_TYPE":"U","NORAD_CAT_ID":34760,"ELEMENT_SET_NO":999,"REV_AT_EPOCH":87822,"BSTAR":0.00060095,"MEAN_MOTION_DOT":1.309e-5,"MEAN_MOTION_DDOT":0},{"OBJECT_NAME":"COSMOS 2251 DEB","OBJECT_ID":"1993-036AAF","EPOCH":"2026-03-02T12:15:40.545216","MEAN_MOTION":14.3841374,"ECCENTRICITY":0.00377655,"INCLINATION":74.0274,"RA_OF_ASC_NODE":215.7371,"ARG_OF_PERICENTER":234.6626,"MEAN_ANOMALY":125.0996,"EPHEMERIS_TYPE":0,"CLASSIFICATION_TYPE":"U","NORAD_CAT_ID":34761,"ELEMENT_SET_NO":999,"REV_AT_EPOCH":88796,"BSTAR":0.00086338496,"MEAN_MOTION_DOT":2.63e-5,"MEAN_MOTION_DDOT":0},{"OBJECT_NAME":"COSMOS 2251 DEB","OBJECT_ID":"1993-036AAM","EPOCH":"2026-03-02T17:32:41.940672","MEAN_MOTION":14.6121679,"ECCENTRICITY":0.0051767,"INCLINATION":74.0075,"RA_OF_ASC_NODE":171.1929,"ARG_OF_PERICENTER":318.6449,"MEAN_ANOMALY":41.0802,"EPHEMERIS_TYPE":0,"CLASSIFICATION_TYPE":"U","NORAD_CAT_ID":34784,"ELEMENT_SET_NO":999,"REV_AT_EPOCH":89703,"BSTAR":0.00053035,"MEAN_MOTION_DOT":2.633e-5,"MEAN_MOTION_DDOT":0},{"OBJECT_NAME":"COSMOS 2251 DEB","OBJECT_ID":"1993-036AAT","EPOCH":"2026-03-02T12:23:35.855808","MEAN_MOTION":14.24965776,"ECCENTRICITY":0.00978862,"INCLINATION":74.0517,"RA_OF_ASC_NODE":100.0329,"ARG_OF_PERICENTER":144.2142,"MEAN_ANOMALY":345.4689,"EPHEMERIS_TYPE":0,"CLASSIFICATION_TYPE":"U","NORAD_CAT_ID":34790,"ELEMENT_SET_NO":999,"REV_AT_EPOCH":87709,"BSTAR":0.0005161422,"MEAN_MOTION_DOT":1.244e-5,"MEAN_MOTION_DDOT":0}]
