COSMOS 2251 DEB         
1 34722U 93036YQ  26061.44916630  .00001296  00000+0  63530-3 0  9994
2 34722  73.8722 193.8946 0161932 104.4760 322.8976 14.12168674873705
COSMOS 2251 DEB         
1 34726U 93036YU  26060.81866438  .00002216  00000+0  46289-3 0  9993
2 34726  74.0282 195.4226 0044361 323.7413  36.0747 14.59888667896560
COSMOS 2251 DEB         
1 34728U 93036YW  26059.26985908  .00003501  00000+0  55927-3 0  9993
2 34728  74.0160 100.9815 0044005 242.2585 117.4121 14.71624289899400
COSMOS 2251 DEB         
1 34729U 93036YX  26061.78163568  .00018686  00000+0  21601-2 0  9995
2 34729  74.0152 199.5363 0016420 301.5719 177.1807 14.85440389896450
COSMOS 2251 DEB         
1 34732U 93036ZA  26061.75988602  .00000483  00000+0  13801-3 0  9990
2 34732  74.0453 303.6462 0038236  73.4235 354.5272 14.47394618893010
COSMOS 2251 DEB         
1 34738U 93036ZG  26061.59568707  .00001224  00000+0  34325-3 0  9996
2 34738  74.0181 353.9847 0045336 122.5679 294.6850 14.46516451890132
COSMOS 2251 DEB         
1 34750U 93036ZU  26061.42486352  .00008572  00000+0  16806-2 0  9993
2 34750  74.1064  49.9077 0038793 334.6513 178.0177 14.62389991893951
COSMOS 2251 DEB         
1 34752U 93036ZW  26061.74789419  .00015462  00000+0  11347-2 0  9991
2 34752  74.0116 197.4411 0049461 304.9726  54.6822 15.02489392910509
COSMOS 2251 DEB         
1 34754U 93036ZY  26061.79784568  .00000616  00000+0  20056-3 0  9991
2 34754  74.0284  79.4972 0029398 181.6186 231.0335 14.40610021892869
COSMOS 2251 DEB         
1 34755U 93036ZZ  26061.24566804  .00001462  00000+0  13777-2 0  9994
2 34755  73.9256 162.2201 0405601 167.7079 222.6181 13.50769611835978
COSMOS 2251 DEB         
1 34756U 93036AAA 26061.16416058  .00000726  00000+0  58738-3 0  9990
2 34756  74.0050 333.7159 0345337 193.1771 166.0154 13.67481816845070
COSMOS 2251 DEB         
1 34758U 93036AAC 26061.30845279  .00001721  00000+0  14749-2 0  9998
2 34758  74.1072 171.3995 0386239 276.9649  78.7686 13.58309889839904
COSMOS 2251 DEB         
1 34760U 93036AAE 26061.63454953  .00001309  00000+0  60095-3 0  9990
2 34760  74.0636 159.7570 0096625 194.6601 233.0512 14.19800308878224
COSMOS 2251 DEB         
1 34761U 93036AAF 26061.51088594  .00002630  00000+0  86338-3 0  9998
2 34761  74.0274 215.7371 0037765 234.6626 125.0996 14.38413740887965
COSMOS 2251 DEB         
1 34784U 93036AAM 26061.73104098  .00002633  00000+0  53035-3 0  9996
2 34784  74.0075 171.1929 0051767 318.6449  41.0802 14.61216790897031
COSMOS 2251 DEB         
1 34790U 93036AAT 26061.51638722  .00001244  00000+0  51614-3 0  9993
2 34790  74.0517 100.0329 0097886 144.2142 345.4689 14.24965776877091
